
    {
        "ARG_OF_PERICENTER": 86.1536,
        "BSTAR": 0.00026319581,
        "CLASSIFICATION_TYPE": "U",
        "ECCENTRICITY": 0.00054454,
        "ELEMENT_SET_NO": 999,
        "EPHEMERIS_TYPE": 0,
        "EPOCH": "2026-05-21T01:05:15.084672",
        "INCLINATION": 51.6281,
        "MEAN_ANOMALY": 274.008,
        "MEAN_MOTION": 15.60382694,
        "MEAN_MOTION_DDOT": 0,
        "MEAN_MOTION_DOT": 0.00021564,
        "NORAD_CAT_ID": 66906,
        "OBJECT_ID": "1998-067XS",
        "OBJECT_NAME": "DUPLEX",
        "RA_OF_ASC_NODE": 66.3162,
        "REV_AT_EPOCH": 2641
    },
    {
        "ARG_OF_PERICENTER": 120.3238,
        "BSTAR": 0.00075181804,
        "CLASSIFICATION_TYPE": "U",
        "ECCENTRICITY": 0.00053648,
        "ELEMENT_SET_NO": 999,
        "EPHEMERIS_TYPE": 0,
        "EPOCH": "2026-05-20T23:47:36.556512",
        "INCLINATION": 51.6239,
        "MEAN_ANOMALY": 239.8295,
        "MEAN_MOTION": 15.81425093,
        "MEAN_MOTION_DDOT": 0,
        "MEAN_MOTION_DOT": 0.00154662,
        "NORAD_CAT_ID": 66912,
        "OBJECT_ID": "1998-067XY",
        "OBJECT_NAME": "ISS OBJECT XY",
        "RA_OF_ASC_NODE": 56.8749,
        "REV_AT_EPOCH": 2652
    },
    {
        "ARG_OF_PERICENTER": 99.981,
        "BSTAR": 0.00042652432,
        "CLASSIFICATION_TYPE": "U",
        "ECCENTRICITY": 0.0012161,
        "ELEMENT_SET_NO": 999,
        "EPHEMERIS_TYPE": 0,
        "EPOCH": "2026-05-21T00:54:37.110528",
        "INCLINATION": 51.6301,
        "MEAN_ANOMALY": 260.2555,
        "MEAN_MOTION": 15.57383266,
        "MEAN_MOTION_DDOT": 0,
        "MEAN_MOTION_DOT": 0.00031564,
        "NORAD_CAT_ID": 67683,
        "OBJECT_ID": "1998-067XZ",
        "OBJECT_NAME": "KNACKSAT-2",
        "RA_OF_ASC_NODE": 70.7726,
        "REV_AT_EPOCH": 1604
    },
    {
        "ARG_OF_PERICENTER": 101.1664,
        "BSTAR": 0.00081547597,
        "CLASSIFICATION_TYPE": "U",
        "ECCENTRICITY": 0.00139153,
        "ELEMENT_SET_NO": 999,
        "EPHEMERIS_TYPE": 0,
        "EPOCH": "2026-05-20T23:39:19.512000",
        "INCLINATION": 51.6262,
        "MEAN_ANOMALY": 259.0897,
        "MEAN_MOTION": 15.67580988,
        "MEAN_MOTION_DDOT": 0,
        "MEAN_MOTION_DOT": 0.00091543,
        "NORAD_CAT_ID": 67684,
        "OBJECT_ID": "1998-067YA",
        "OBJECT_NAME": "CORAL",
        "RA_OF_ASC_NODE": 67.4061,
        "REV_AT_EPOCH": 1608
    },
    {
        "ARG_OF_PERICENTER": 97.8996,
        "BSTAR": 0.00050132122,
        "CLASSIFICATION_TYPE": "U",
        "ECCENTRICITY": 0.00137958,
        "ELEMENT_SET_NO": 999,
        "EPHEMERIS_TYPE": 0,
        "EPOCH": "2026-05-21T01:31:57.783072",
        "INCLINATION": 51.6296,
        "MEAN_ANOMALY": 262.3563,
        "MEAN_MOTION": 15.58502647,
        "MEAN_MOTION_DDOT": 0,
        "MEAN_MOTION_DOT": 0.00038877,
        "NORAD_CAT_ID": 67685,
        "OBJECT_ID": "1998-067YB",
        "OBJECT_NAME": "GXIBA-1",
        "RA_OF_ASC_NODE": 70.1946,
        "REV_AT_EPOCH": 1605
    },
    {
        "ARG_OF_PERICENTER": 82.3003,
        "BSTAR": 0.00061448416,
        "CLASSIFICATION_TYPE": "U",
        "ECCENTRICITY": 0.00104034,
        "ELEMENT_SET_NO": 999,
        "EPHEMERIS_TYPE": 0,
        "EPOCH": "2026-05-21T01:24:53.004384",
        "INCLINATION": 51.6281,
        "MEAN_ANOMALY": 277.9171,
        "MEAN_MOTION": 15.60721596,
        "MEAN_MOTION_DDOT": 0,
        "MEAN_MOTION_DOT": 0.00052007,
        "NORAD_CAT_ID": 67686,
        "OBJECT_ID": "1998-067YC",
        "OBJECT_NAME": "UITMSAT-2",
        "RA_OF_ASC_NODE": 69.413,
        "REV_AT_EPOCH": 1606
    },
    {
        "ARG_OF_PERICENTER": 81.185,
        "BSTAR": 0.00046424947,
        "CLASSIFICATION_TYPE": "U",
        "ECCENTRICITY": 0.00101457,
        "ELEMENT_SET_NO": 999,
        "EPHEMERIS_TYPE": 0,
        "EPOCH": "2026-05-21T01:56:07.556928",
        "INCLINATION": 51.6301,
        "MEAN_ANOMALY": 279.029,
        "MEAN_MOTION": 15.58032215,
        "MEAN_MOTION_DDOT": 0,
        "MEAN_MOTION_DOT": 0.0003524,
        "NORAD_CAT_ID": 67687,
        "OBJECT_ID": "1998-067YD",
        "OBJECT_NAME": "LEOPARD",
        "RA_OF_ASC_NODE": 70.3148,
        "REV_AT_EPOCH": 1597
    },
    {
        "ARG_OF_PERICENTER": 81.3677,
        "BSTAR": 0.0005392291,
        "CLASSIFICATION_TYPE": "U",
        "ECCENTRICITY": 0.00101975,
        "ELEMENT_SET_NO": 999,
        "EPHEMERIS_TYPE": 0,
        "EPOCH": "2026-05-21T02:10:09.961248",
        "INCLINATION": 51.6293,
        "MEAN_ANOMALY": 278.8471,
        "MEAN_MOTION": 15.59700585,
        "MEAN_MOTION_DDOT": 0,
        "MEAN_MOTION_DOT": 0.00043762,
        "NORAD_CAT_ID": 67688,
        "OBJECT_ID": "1998-067YE",
        "OBJECT_NAME": "HMU-SAT2",
        "RA_OF_ASC_NODE": 69.627,
        "REV_AT_EPOCH": 1598
    },
    {
        "ARG_OF_PERICENTER": 82.0965,
        "BSTAR": 0.00011416167,
        "CLASSIFICATION_TYPE": "U",
        "ECCENTRICITY": 0.00075232,
        "ELEMENT_SET_NO": 999,
        "EPHEMERIS_TYPE": 0,
        "EPOCH": "2026-05-21T07:03:31.154112",
        "INCLINATION": 51.6329,
        "MEAN_ANOMALY": 278.0877,
        "MEAN_MOTION": 15.49293486,
        "MEAN_MOTION_DDOT": 0,
        "MEAN_MOTION_DOT": 5.91e-05,
        "NORAD_CAT_ID": 67796,
        "OBJECT_ID": "2026-031A",
        "OBJECT_NAME": "CREW DRAGON 12",
        "RA_OF_ASC_NODE": 73.233,
        "REV_AT_EPOCH": 56743
    },
    {
        "ARG_OF_PERICENTER": 82.0965,
        "BSTAR": 0.00011416167,
        "CLASSIFICATION_TYPE": "U",
        "ECCENTRICITY": 0.00075232,
        "ELEMENT_SET_NO": 999,
        "EPHEMERIS_TYPE": 0,
        "EPOCH": "2026-05-21T07:03:31.154112",
        "INCLINATION": 51.6329,
        "MEAN_ANOMALY": 278.0877,
        "MEAN_MOTION": 15.49293486,
        "MEAN_MOTION_DDOT": 0,
        "MEAN_MOTION_DOT": 5.91e-05,
        "NORAD_CAT_ID": 68319,
        "OBJECT_ID": "2026-058A",
        "OBJECT_NAME": "PROGRESS-MS 33",
        "RA_OF_ASC_NODE": 73.233,
        "REV_AT_EPOCH": 56736
    },
    {
        "ARG_OF_PERICENTER": 82.0965,
        "BSTAR": 0.00011416167,
        "CLASSIFICATION_TYPE": "U",
        "ECCENTRICITY": 0.00075232,
        "ELEMENT_SET_NO": 999,
        "EPHEMERIS_TYPE": 0,
        "EPOCH": "2026-05-21T07:03:31.154112",
        "INCLINATION": 51.6329,
        "MEAN_ANOMALY": 278.0877,
        "MEAN_MOTION": 15.49293486,
        "MEAN_MOTION_DDOT": 0,
        "MEAN_MOTION_DOT": 5.91e-05,
        "NORAD_CAT_ID": 68689,
        "OBJECT_ID": "2026-079A",
        "OBJECT_NAME": "CYGNUS NG-24",
        "RA_OF_ASC_NODE": 73.233,
        "REV_AT_EPOCH": 56755
    },
    {
        "ARG_OF_PERICENTER": 82.0965,
        "BSTAR": 0.00011416167,
        "CLASSIFICATION_TYPE": "U",
        "ECCENTRICITY": 0.00075232,
        "ELEMENT_SET_NO": 999,
        "EPHEMERIS_TYPE": 0,
        "EPOCH": "2026-05-21T07:03:31.154112",
        "INCLINATION": 51.6329,
        "MEAN_ANOMALY": 278.0877,
        "MEAN_MOTION": 15.49293486,
        "MEAN_MOTION_DDOT": 0,
        "MEAN_MOTION_DOT": 5.91e-05,
        "NORAD_CAT_ID": 68837,
        "OBJECT_ID": "2026-093A",
        "OBJECT_NAME": "PROGRESS-MS 34",
        "RA_OF_ASC_NODE": 73.233,
        "REV_AT_EPOCH": 56759
    },
    {
        "ARG_OF_PERICENTER": 272.7729,
        "BSTAR": 0.00013453798,
        "CLASSIFICATION_TYPE": "U",
        "ECCENTRICITY": 0.00074531,
        "ELEMENT_SET_NO": 999,
        "EPHEMERIS_TYPE": 0,
        "EPOCH": "2026-05-21T09:55:23.865024",
        "INCLINATION": 41.4679,
        "MEAN_ANOMALY": 87.2257,
        "MEAN_MOTION": 15.60719554,
        "MEAN_MOTION_DDOT": 0,
        "MEAN_MOTION_DOT": 0.00011191,
        "NORAD_CAT_ID": 69049,
        "OBJECT_ID": "2026-102A",
        "OBJECT_NAME": "TIANZHOU-10",
        "RA_OF_ASC_NODE": 124.8054,
        "REV_AT_EPOCH": 191
    }