DUPLEX                  
1 66906U 98067XS  26141.04531348  .00021564  00000+0  26320-3 0  9992
2 66906  51.6281  66.3162 0005445  86.1536 274.0080 15.60382694 26411
ISS OBJECT XY           
1 66912U 98067XY  26140.99139533  .00154662  00000+0  75182-3 0  9998
2 66912  51.6239  56.8749 0005364 120.3238 239.8295 15.81425093 26529
KNACKSAT-2              
1 67683U 98067XZ  26141.03792952  .00031564  00000+0  42652-3 0  9991
2 67683  51.6301  70.7726 0012161  99.9810 260.2555 15.57383266 16046
CORAL                   
1 67684U 98067YA  26140.98564250  .00091543  00000+0  81548-3 0  9993
2 67684  51.6262  67.4061 0013915 101.1664 259.0897 15.67580988 16089
GXIBA-1                 
1 67685U 98067YB  26141.06386323  .00038877  00000+0  50132-3 0  9993
2 67685  51.6296  70.1946 0013796  97.8996 262.3563 15.58502647 16056
UITMSAT-2               
1 67686U 98067YC  26141.05894681  .00052007  00000+0  61448-3 0  9997
2 67686  51.6281  69.4130 0010403  82.3003 277.9171 15.60721596 16064
LEOPARD                 
1 67687U 98067YD  26141.08064302  .00035240  00000+0  46425-3 0  9998
2 67687  51.6301  70.3148 0010145  81.1850 279.0290 15.58032215 15972
HMU-SAT2                
1 67688U 98067YE  26141.09039307  .00043762  00000+0  53923-3 0  9996
2 67688  51.6293  69.6270 0010197  81.3677 278.8471 15.59700585 15988
CREW DRAGON 12          
1 67796U 26031A   26141.29411058  .00005910  00000+0  11416-3 0  9991
2 67796  51.6329  73.2330 0007523  82.0965 278.0877 15.49293486567433
PROGRESS-MS 33          
1 68319U 26058A   26141.29411058  .00005910  00000+0  11416-3 0  9992
2 68319  51.6329  73.2330 0007523  82.0965 278.0877 15.49293486567514
CYGNUS NG-24            
1 68689U 26079A   26141.29411058  .00005910  00000+0  11416-3 0  9995
2 68689  51.6329  73.2330 0007523  82.0965 278.0877 15.49293486567558
PROGRESS-MS 34          
1 68837U 26093A   26141.29411058  .00005910  00000+0  11416-3 0  9996
2 68837  51.6329  73.2330 0007523  82.0965 278.0877 15.49293486567597
TIANZHOU-10             
1 69049U 26102A   26141.41347066  .00011191  00000+0  13454-3 0  9996
2 69049  41.4679 124.8054 0007453 272.7729  87.2257 15.60719554  1915
